[{"OBJECT_NAME":"STARLINK-3069","OBJECT_ID":"2021-082AY","EPOCH":"2026-03-09T21:43:49.351584","MEAN_MOTION":14.98327992,"ECCENTRICITY":0.00025651,"INCLINATION":69.9983,"RA_OF_ASC_NODE":253.9053,"ARG_OF_PERICENTER":268.6188,"MEAN_ANOMALY":91.4677,"EPHEMERIS_TYPE":0,"CLASSIFICATION_TYPE":"U","NORAD_CAT_ID":49176,"ELEMENT_SET_NO":999,"REV_AT_EPOCH":24699,"BSTAR":1.540177e-5,"MEAN_MOTION_DOT":9.1e-7,"MEAN_MOTION_DDOT":0},{"OBJECT_NAME":"SITRO-AIS 15","OBJECT_ID":"2024-199D","EPOCH":"2026-03-09T21:41:54.706560","MEAN_MOTION":14.9706426,"ECCENTRICITY":0.00074523,"INCLINATION":97.3312,"RA_OF_ASC_NODE":274.4424,"ARG_OF_PERICENTER":51.6231,"MEAN_ANOMALY":308.566,"EPHEMERIS_TYPE":0,"CLASSIFICATION_TYPE":"U","NORAD_CAT_ID":61738,"ELEMENT_SET_NO":999,"REV_AT_EPOCH":11696,"BSTAR":0.0003624053,"MEAN_MOTION_DOT":4.126e-5,"MEAN_MOTION_DDOT":0}]
